EUTELSAT 8 WEST B       
1 40875U 15039B   25344.10530902 -.00000062  00000+0  00000+0 0  9997
2 40875   0.0646   2.1604 0004172 258.1064 208.7456  1.00271527 37765
EUTELSAT 9B             
1 41310U 16005A   25344.17266955  .00000065  00000+0  00000+0 0  9999
2 41310   0.0386  57.1117 0004843 208.3432 244.8735  1.00272588 36220
EUTELSAT 65 WEST A      
1 41382U 16014A   25344.17197587 -.00000273  00000+0  00000+0 0  9994
2 41382   0.0501   7.2682 0002619 258.3578 170.2329  1.00272579 35642
EUTELSAT 117 WEST B     
1 41589U 16038B   25343.61364059 -.00000009  00000+0  00000+0 0  9994
2 41589   0.0013 169.4504 0000369 286.2539  86.8165  1.00271212 34765
EUTELSAT 172B           
1 42741U 17029B   25344.17683515 -.00000003  00000+0  00000+0 0  9993
2 42741   0.0117  93.1300 0000128 134.9379  86.7534  1.00269291 31830
EUTELSAT 7C             
1 44334U 19034B   25344.03794777  .00000051  00000+0  00000+0 0  9991
2 44334   0.0729 178.2937 0003355  64.3773 216.9906  1.00271046  4931
EUTELSAT 5 WEST B       
1 44624U 19067A   25344.10530902 -.00000039  00000+0  00000+0 0  9992
2 44624   0.0635 343.3778 0003474 276.5826 212.0361  1.00271292 22547
EUTELSAT KONNECT        
1 45027U 20005B   25344.03794777  .00000052  00000+0  00000+0 0  9992
2 45027   0.0718  96.1497 0001728 191.1313 172.5860  1.00268676 22446
